IONOSFERA-M 02
1 61736U 24199B   26053.94782739  .00000041  00000-0  37803-4 0  9993
2 61736  98.7347 288.1309 0000537  31.2397 328.8813 14.22734471114581
SITRO-AIS-16
1 61737U 24199C   26053.94584620  .00003054  00000-0  27039-3 0  9999
2 61737  97.3325 260.3768 0008022  90.4660 269.7482 14.96930641114720
SITRO-AIS-15
1 61738U 24199D   26053.86467299  .00003708  00000-0  32704-3 0  9994
2 61738  97.3335 260.3343 0008251  91.2427 268.9741 14.96955897114713
SITRO-AIS-21
1 61739U 24199E   26053.88110745  .00001514  00000-0  14418-3 0  9993
2 61739  97.3336 259.1524 0014253  88.2422 272.0432 14.94676438114679
SITRO-AIS-22
1 61740U 24199F   26053.89831855  .00003432  00000-0  31585-3 0  9993
2 61740  97.3328 259.2855 0014068  88.5612 271.7222 14.95276481114834
SITRO-AIS-24
1 61741U 24199G   26053.83364174  .00004219  00000-0  38555-3 0  9991
2 61741  97.3330 259.2277 0013936  89.6272 270.6547 14.95442714114790
SITRO-AIS-23
1 61742U 24199H   26053.88779260  .00003098  00000-0  28542-3 0  9992
2 61742  97.3329 259.3005 0013808  89.0937 271.1867 14.95304930114685
SITRO-AIS-13
1 61743U 24199J   26053.87310216  .00003106  00000-0  27297-3 0  9990
2 61743  97.3330 260.4653 0007830  91.2621 268.9499 14.97201981114884
CSTP-2.11
1 61744U 24199K   26053.94738987  .00031685  00000-0  66054-3 0  9995
2 61744  97.3168 287.8252 0008624 342.5915  17.5037 15.45473642116687
POLYTECH UNIVERSE-5 (RS70S)
1 61745U 24199L   26053.93260756  .00047297  00000-0  81659-3 0  9993
2 61745  97.3151 289.0440 0006465 348.9302  11.1807 15.50842491119916
COLIBRI-S (RS67S)
1 61746U 24199M   26053.89899695  .00024719  00000-0  56697-3 0  9997
2 61746  97.3181 286.9933 0009109 346.6077  13.4927 15.42683172119766
POLYTECH UNIVERSE-4 (RS71S)
1 61747U 24199N   26053.88465987  .00021775  00000-0  52453-3 0  9995
2 61747  97.3184 286.5614 0009479 344.9539  15.1424 15.41229762119734
SITRO-AIS-44
1 61748U 24199P   26053.92110746  .00058011  00000-0  89548-3 0  9999
2 61748  97.3105 289.7553 0006436 351.0508   9.0629 15.53925330119961
VIZARD-ION (RS68S)
1 61749U 24199Q   26053.90217052  .00035654  00000-0  69544-3 0  9998
2 61749  97.3173 288.3525 0008045 342.5229  17.5743 15.47397076119856
MTUSI-1
1 61750U 24199R   26053.90162616  .00038639  00000-0  75866-3 0  9995
2 61750  97.3138 287.8607 0008341 353.5691   6.5451 15.47185760119835
VLADIVOSTOK-1
1 61751U 24199S   26053.93674937  .00012013  00000-0  36015-3 0  9994
2 61751  97.3175 284.2751 0010375   6.3733 353.7640 15.34581024119609
SITRO-AIS-14
1 61752U 24199T   26053.91566296  .00004277  00000-0  37598-3 0  9991
2 61752  97.3322 260.4143 0008113  93.3518 266.8633 14.97006006118020
HORS-3 (RS81S)
1 61753U 24199U   26053.90611377  .00034973  00000-0  68541-3 0  9990
2 61753  97.3150 288.0066 0007368 354.7533   5.3639 15.47268867119846
HORS-4 (RS82S)
1 61754U 24199V   26053.93512648  .00045125  00000-0  80659-3 0  9990
2 61754  97.3127 288.6770 0007248 351.7345   8.3786 15.49862857119896
SITRO-AIS-43
1 61755U 24199W   26053.89310005  .00055813  00000-0  85436-3 0  9992
2 61755  97.3122 289.7972 0005450 348.6199  11.4931 15.54172738119966
SITRO-AIS-42
1 61756U 24199X   26053.93978323  .00060342  00000-0  91784-3 0  9997
2 61756  97.3114 289.8913 0006214 352.6385   7.4776 15.54323701119976
HORIZON (RS59S)
1 61757U 24199Y   26053.94147477  .00123699  00000-0  11879-2 0  9998
2 61757  97.3101 292.1303 0004656 339.9372  20.1704 15.66198666120119
SITRO-AIS-20
1 61758U 24199Z   26053.91744918  .00004485  00000-0  39146-3 0  9998
2 61758  97.3321 260.5428 0007925  94.8141 265.3987 14.97266348118034
SITRO-AIS-19
1 61759U 24199AA  26053.85220038  .00004500  00000-0  39298-3 0  9990
2 61759  97.3322 260.4805 0007896  96.0913 264.1210 14.97244516118020
SITRO-AIS-41
1 61760U 24199AB  26053.90945145  .00053680  00000-0  84049-3 0  9998
2 61760  97.3138 289.6592 0005476 350.0333  10.0811 15.53556907119955
NORBY-3
1 61761U 24199AC  26053.88497593  .00039040  00000-0  73190-3 0  9994
2 61761  97.3122 288.4441 0006534 354.1977   5.9197 15.48534979119874
ARCTICSAT-1 (RS74S)
1 61762U 24199AD  26053.91688447  .00094243  00000-0  10447-2 0  9990
2 61762  97.3118 291.7134 0004891 334.9390  25.1630 15.62645125120088
SIT-HSE
1 61763U 24199AE  26053.93375053  .00026812  00000-0  53837-3 0  9997
2 61763  97.3156 288.7442 0005631   3.6843 356.4447 15.46627566119899
SIT-2086
1 61764U 24199AF  26053.91153966  .00025817  00000-0  51481-3 0  9990
2 61764  97.3144 288.7571 0006875 334.5063  25.5847 15.46828864116733
RUZAEVKA-390 (RS44S)
1 61766U 24199AH  26053.90939915  .00499942  97524-4  16394-2 0  9995
2 61766  97.2976 295.0555 0000973  20.0539 340.0772 15.90548890117165
HOD-HOD
1 61768U 24199AK  26053.93581803  .00027055  00000-0  58411-3 0  9997
2 61768  97.3151 287.7000 0006160   2.9728 357.1557 15.44491800116671
KOSAR
1 61769U 24199AL  26053.90873565  .00034246  00000-0  67912-3 0  9990
2 61769  97.3144 288.3137 0005935   4.1258 356.0039 15.46940853116710
SITRO-AIS-48
1 61771U 24199AN  26053.94102135  .00043922  00000-0  82204-3 0  9997
2 61771  97.3113 287.7933 0009089   0.8854 359.2411 15.48535755116694
HYPERVIEW-1G (RS66S)
1 61772U 24199AP  26053.90925072  .00066839  00000-0  96018-3 0  9997
2 61772  97.3110 289.6179 0008468 349.4554  10.6521 15.55843970116806
SITRO-AIS-47
1 61773U 24199AQ  26053.89196126  .00043996  00000-0  81175-3 0  9993
2 61773  97.3113 287.8699 0009110   1.2151 358.9121 15.48945302116693
SITRO-AIS-46
1 61774U 24199AR  26053.91233301  .00046368  00000-0  82813-3 0  9990
2 61774  97.3103 288.1186 0008920   2.4489 357.6805 15.49864737116714
CSTP-2.2
1 61775U 24199AS  26053.91696558  .00020338  00000-0  49945-3 0  9996
2 61775  97.3169 285.9551 0015601 339.6934  20.3690 15.40577048116557
SITRO-AIS-40
1 61776U 24199AT  26053.90604854  .00046110  00000-0  81954-3 0  9996
2 61776  97.3109 288.1301 0008875   1.0482 359.0787 15.50004813119865
CSTP-2.1
1 61777U 24199AU  26053.88493111  .00020931  00000-0  50195-3 0  9992
2 61777  97.3170 285.9907 0015295 341.9325  18.1376 15.41296929116558
SITRO-AIS-39
1 61778U 24199AV  26053.91949331  .00043174  00000-0  81263-3 0  9991
2 61778  97.3111 287.6723 0009380   2.1211 358.0078 15.48374088116686
ALTAIR (RS65S)
1 61779U 24199AW  26053.90176734  .00014493  00000-0  43330-3 0  9995
2 61779  97.3200 284.0732 0013700   4.0680 356.0673 15.34583038119571
SITRO-AIS-37
1 61780U 24199AX  26053.92121615  .00043730  00000-0  80534-3 0  9990
2 61780  97.3117 287.8735 0009533   1.5519 358.5760 15.48995801116690
ASRTU-1 (RS64S/BJ2CR/AO-123)
1 61781U 24199AY  26053.93790578  .00011324  00000-0  34841-3 0  9996
2 61781  97.3175 283.6615 0014407   5.5220 354.6179 15.33723489116400
TUSUR GO (RS78S)
1 61782U 24199AZ  26053.89389515  .00134310  00000-0  12795-2 0  9991
2 61782  97.3060 291.0926 0006190 351.6122   8.5034 15.66355478116903
SAMSAT-IONOSPHERE (RS75S)
1 61784U 24199BB  26053.94056123  .00043595  00000-0  82354-3 0  9998
2 61784  97.3139 287.8127 0010382 353.4350   6.6763 15.48255745119838
RTU MIREA-1 (RS51S)
1 61785U 24199BC  26053.89134235  .00048476  00000-0  86109-3 0  9999
2 61785  97.3131 288.1673 0010057 351.3792   8.7285 15.49997433116700
SITRO-AIS-38
1 61786U 24199BD  26053.90809620  .00019967  00000-0  43795-3 0  9996
2 61786  97.3130 287.2740 0010377 356.1975   3.9192 15.44046334116654
2024-199BE (? SWSU-60)
1 61787U 24199BE  26053.94168739  .00012287  00000-0  37216-3 0  9999
2 61787  97.3185 283.8410 0014244   4.3089 355.8274 15.34201736119567
SITRO-AIS-45
1 61788U 24199BF  26053.88943063  .00042153  00000-0  78776-3 0  9995
2 61788  97.3108 287.6857 0009364   2.1042 358.0246 15.48584940116660
SITRO-AIS-17
1 61789U 24199BG  26053.90952630  .00004093  00000-0  35757-3 0  9992
2 61789  97.3319 260.5785 0007738  99.8771 260.3326 14.97272020114938
SITRO-AIS-18
1 61790U 24199BH  26053.85277604  .00004564  00000-0  39853-3 0  9993
2 61790  97.3323 260.4830 0007914  97.3035 262.9088 14.97234221114920
INNOCUBE (TUBSAT-31)
1 62616U 25009H   26052.78190458  .00007387  00000-0  30204-3 0  9991
2 62616  97.3975 134.1057 0006563  32.3894 327.7745 15.24623490 61225
OTP-2
1 63235U 25052AB  26053.65376139  .00011780  00000-0  51648-3 0  9993
2 63235  97.4003 307.8423 0005775 189.4872 170.6257 15.22122349 52437
HADES-ICM (SO-125)
1 63492U 25052BN  26053.95777451  .00124450  00000-0  19909-2 0  9995
2 63492  97.3980 313.9162 0006836 143.8748 216.2968 15.52675241 52857
IONOSFERA-M 03
1 64876U 25155A   26053.93363087  .00000090  00000-0  60782-4 0  9990
2 64876  98.5895  18.7980 0001513 142.5086 217.6197 14.21462437 30174
IONOSFERA-M 04
1 64877U 25155B   26053.96862890  .00000076  00000-0  54538-4 0  9996
2 64877  98.5892  18.7507 0001316 116.9486 243.1826 14.21463998 30173
INNOSAT16 (RS92S7)
1 64878U 25155C   26053.94378744  .00007960  00000-0  33198-3 0  9992
2 64878  97.4441  21.6477 0009211 219.7911 140.2652 15.23917212 63264
GEOSCAN-6 (RS92S6)
1 64879U 25155D   26053.91254912  .00014372  00000-0  53555-3 0  9994
2 64879  97.4442  22.3175 0006602 206.9654 153.1243 15.27538122 63309
GEOSCAN 1 (RS92S1)
1 64880U 25155E   26053.95227607  .00014332  00000-0  52778-3 0  9993
2 64880  97.4440  22.4221 0006498 206.9781 153.1121 15.27929745 63317
239ALFEROV (RS61S)
1 64881U 25155F   26053.92657688  .00018890  00000-0  66547-3 0  9999
2 64881  97.4445  22.6364 0006107 204.3529 155.7423 15.29325998 63328
CSTP-4.3
1 64882U 25155G   26053.92094866  .00012926  00000-0  48711-3 0  9990
2 64882  97.4464  22.3503 0006138 207.5138 152.5777 15.27193520 63304
CSTP-4.2
1 64883U 25155H   26053.92106436  .00012839  00000-0  48343-3 0  9992
2 64883  97.4457  22.3379 0006267 203.9112 156.1837 15.27223145 63307
CSTP-4.4
1 64884U 25155J   26053.92039522  .00013000  00000-0  49014-3 0  9991
2 64884  97.4451  22.3398 0006735 202.1906 157.9042 15.27172014 63300
